[{"OBJECT_NAME":"STARLINK-4793","OBJECT_ID":"2022-114BB","EPOCH":"2026-03-09T18:31:58.058400","MEAN_MOTION":15.08848836,"ECCENTRICITY":0.00015566,"INCLINATION":53.216,"RA_OF_ASC_NODE":273.8145,"ARG_OF_PERICENTER":83.5223,"MEAN_ANOMALY":276.5946,"EPHEMERIS_TYPE":0,"CLASSIFICATION_TYPE":"U","NORAD_CAT_ID":53867,"ELEMENT_SET_NO":999,"REV_AT_EPOCH":19326,"BSTAR":5.130695e-5,"MEAN_MOTION_DOT":5.29e-6,"MEAN_MOTION_DDOT":0},{"OBJECT_NAME":"CZ-2C R\/B","OBJECT_ID":"2026-009B","EPOCH":"2026-03-09T17:37:38.663328","MEAN_MOTION":15.03346126,"ECCENTRICITY":0.00989033,"INCLINATION":97.1689,"RA_OF_ASC_NODE":139.2821,"ARG_OF_PERICENTER":40.6367,"MEAN_ANOMALY":320.2186,"EPHEMERIS_TYPE":0,"CLASSIFICATION_TYPE":"U","NORAD_CAT_ID":67475,"ELEMENT_SET_NO":999,"REV_AT_EPOCH":808,"BSTAR":0.00028478769,"MEAN_MOTION_DOT":4.245e-5,"MEAN_MOTION_DDOT":0}]
